QIANFAN-81              
1 63167U 25046J   25283.53489799  .00000102  00000+0  13935-3 0  9990
2 63167  88.9804 326.4134 0012732 307.8463  52.1536 13.50985224 38957
QIANFAN-82              
1 63168U 25046K   25283.49392808  .00000160  00000+0  22974-3 0  9997
2 63168  88.9804 326.4612 0011079 318.0371  41.9930 13.50967514 38938
QIANFAN-83              
1 63169U 25046L   25283.51695704  .00000179  00000+0  21722-3 0  9992
2 63169  88.9804 326.3592 0012077 304.3868  55.6147 13.61961612 38996
QIANFAN-84              
1 63170U 25046M   25283.52234123  .00000135  00000+0  19044-3 0  9995
2 63170  88.9804 326.5912 0013935 312.4899  47.5074 13.50985591 38869
QIANFAN-85              
1 63171U 25046N   25283.51863234  .00000183  00000+0  26559-3 0  9998
2 63171  88.9803 326.4636 0011392 316.4969  43.5282 13.50970251 38930
QIANFAN-86              
1 63172U 25046P   25283.52686941  .00000171  00000+0  24569-3 0  9994
2 63172  88.9806 326.3234 0009389 322.9003  37.1498 13.50967329 39011
QIANFAN-87              
1 63173U 25046Q   25282.68330257  .00000145  00000+0  20656-3 0  9991
2 63173  88.9804 326.5243 0010016 319.1660  40.8739 13.50979787 38837
QIANFAN-88              
1 63174U 25046R   25283.51451471  .00000149  00000+0  21299-3 0  9995
2 63174  88.9800 326.3915 0010557 325.4993  34.5472 13.50973338 38972
